NORAD_CAT_ID,OBJECT_NAME,OBJECT_TYPE,EPOCH,MEAN_MOTION,ECCENTRICITY,INCLINATION,RA_OF_ASC_NODE,ARG_OF_PERICENTER,MEAN_ANOMALY,BSTAR,MEAN_MOTION_DOT,MEAN_MOTION_DDOT,TLE_LINE0,TLE_LINE1,TLE_LINE2,SEMIMAJOR_AXIS,PERIOD,APOGEE,PERIGEE,DECAYED
50832.0,STARLINK-3328,PAYLOAD,2023-03-16 04:42:26,15.08865389,0.0001363,53.2156,30.0451,106.5616,253.5526,0.0011425,0.00017954,0.0,0 STARLINK-3328,1 50832U 22001AF  23075.19613971  .00017954  00000-0  11425-2 0  9998,2 50832  53.2156  30.0451 0001363 106.5616 253.5526 15.08865389 67041,6917.803,95.436,540.611,538.725,0.0
50832.0,STARLINK-3328,PAYLOAD,2023-03-16 20:36:18,15.08840506,0.0001597,53.2162,27.0686,119.1425,240.9727,0.0012689,0.00019965,0.0,0 STARLINK-3328,1 50832U 22001AF  23075.85854912  .00019965  00000-0  12689-2 0  9990,2 50832  53.2162  27.0686 0001597 119.1425 240.9727 15.08840506 67149,6917.879,95.438,540.849,538.639,0.0
50832.0,STARLINK-3328,PAYLOAD,2023-03-17 06:08:37,15.08841372,0.000135,53.2168,25.2869,84.713,275.4016,0.0010884,0.00017077,0.0,0 STARLINK-3328,1 50832U 22001AF  23076.25599296  .00017077  00000-0  10884-2 0  9993,2 50832  53.2168  25.2869 0001350  84.7130 275.4016 15.08841372 67208,6917.876,95.437,540.675,538.807,0.0
50832.0,STARLINK-3328,PAYLOAD,2023-03-17 14:05:33,15.08837831,0.0001397,53.2161,23.7989,87.2521,272.8631,0.00060094,9.288e-05,0.0,0 STARLINK-3328,1 50832U 22001AF  23076.58719441  .00009288  00000-0  60094-3 0  9999,2 50832  53.2161  23.7989 0001397  87.2521 272.8631 15.08837831 66006,6917.887,95.438,540.718,538.786,0.0
50832.0,STARLINK-3328,PAYLOAD,2023-03-18 05:59:24,15.08857356,0.0001444,53.2162,20.8238,98.0566,262.059,0.0008677,0.00013555,0.0,0 STARLINK-3328,1 50832U 22001AF  23077.24958971  .00013555  00000-0  86770-3 0  9997,2 50832  53.2162  20.8238 0001444  98.0566 262.0590 15.08857356 67352,6917.827,95.436,540.691,538.693,0.0
50832.0,STARLINK-3328,PAYLOAD,2023-03-19 05:50:11,15.08857449,0.0001231,53.2161,16.3646,72.9629,287.1498,0.00053226,8.197e-05,0.0,0 STARLINK-3328,1 50832U 22001AF  23078.24318689  .00008197  00000-0  53226-3 0  9990,2 50832  53.2161  16.3646 0001231  72.9629 287.1498 15.08857449 67504,6917.827,95.436,540.544,538.84,0.0
50832.0,STARLINK-3328,PAYLOAD,2023-03-19 20:08:39,15.08840195,0.0001435,53.2169,13.6876,102.9817,257.1335,0.0001346,1.855e-05,0.0,0 STARLINK-3328,1 50832U 22001AF  23078.83934972  .00001855  00000-0  13460-3 0  9994,2 50832  53.2169  13.6876 0001435 102.9817 257.1335 15.08840195 67592,6917.88,95.438,540.738,538.752,0.0
50832.0,STARLINK-3328,PAYLOAD,2023-03-20 05:40:58,15.08861121,0.0001075,53.2167,11.9057,83.8834,276.2281,0.0016096,0.00025436,0.0,0 STARLINK-3328,1 50832U 22001AF  23079.23678855  .00025436  00000-0  16096-2 0  9992,2 50832  53.2167  11.9057 0001075  83.8834 276.2281 15.08861121 67659,6917.816,95.436,540.424,538.937,0.0
50832.0,STARLINK-3328,PAYLOAD,2023-03-21 02:20:59,15.0885534,0.0001166,53.217,8.0413,115.0255,245.0858,0.0018851,0.00029853,0.0,0 STARLINK-3328,1 50832U 22001AF  23080.09791253  .00029853  00000-0  18851-2 0  9994,2 50832  53.2170   8.0413 0001166 115.0255 245.0858 15.08855340 67786,6917.834,95.437,540.505,538.892,0.0
50832.0,STARLINK-3328,PAYLOAD,2023-03-22 03:47:10,15.08847858,0.0001481,53.2166,3.284,109.6437,250.4715,0.0010355,0.00016234,0.0,0 STARLINK-3328,1 50832U 22001AF  23081.15775848  .00016234  00000-0  10355-2 0  9994,2 50832  53.2166   3.2840 0001481 109.6437 250.4715 15.08847858 67948,6917.856,95.437,540.746,538.697,0.0
50832.0,STARLINK-3328,PAYLOAD,2023-03-23 02:02:34,15.08851401,0.0001403,53.2162,359.12,101.0476,259.0674,0.0010776,0.00016909,0.0,0 STARLINK-3328,1 50832U 22001AF  23082.08511680  .00016909  00000-0  10776-2 0  9995,2 50832  53.2162 359.1200 0001403 101.0476 259.0674 15.08851401 68084,6917.846,95.437,540.681,538.74,0.0
50832.0,STARLINK-3328,PAYLOAD,2023-03-23 22:42:34,15.0884224,0.0001154,53.2162,355.2533,118.917,241.1938,0.00033686,5.078e-05,0.0,0 STARLINK-3328,1 50832U 22001AF  23082.94623761  .00005078  00000-0  33686-3 0  9995,2 50832  53.2162 355.2533 0001154 118.9170 241.1938 15.08842240 66962,6917.874,95.437,540.537,538.94,0.0
50832.0,STARLINK-3328,PAYLOAD,2023-03-24 03:28:44,15.08890434,0.0001532,53.2163,354.3593,90.5664,269.5504,0.001875,0.0002972,0.0,0 STARLINK-3328,1 50832U 22001AF  23083.14495450  .00029720  00000-0  18750-2 0  9994,2 50832  53.2163 354.3593 0001532  90.5664 269.5504 15.08890434 68246,6917.726,95.434,540.651,538.531,0.0
50832.0,STARLINK-3328,PAYLOAD,2023-03-24 22:33:20,15.08865926,0.0001274,53.2152,350.7949,130.2094,229.9009,0.00062575,9.692e-05,0.0,0 STARLINK-3328,1 50832U 22001AF  23083.93981848  .00009692  00000-0  62575-3 0  9993,2 50832  53.2152 350.7949 0001274 130.2094 229.9009 15.08865926 67114,6917.801,95.436,540.547,538.785,0.0
50832.0,STARLINK-3328,PAYLOAD,2023-03-25 00:08:43,15.08869398,0.0001213,53.2154,350.4962,95.8705,264.2426,0.00065046,0.00010088,0.0,0 STARLINK-3328,1 50832U 22001AF  23084.00605873  .00010088  00000-0  65046-3 0  9990,2 50832  53.2154 350.4962 0001213  95.8705 264.2426 15.08869398 68377,6917.791,95.436,540.495,538.816,0.0
50832.0,STARLINK-3328,PAYLOAD,2023-03-25 20:48:45,15.08832123,0.0001295,53.2162,346.6301,93.8344,266.2796,-0.00026362,-4.48e-05,0.0,0 STARLINK-3328,1 50832U 22001AF  23084.86719138 -.00004480  00000-0 -26362-3 0  9993,2 50832  53.2162 346.6301 0001295  93.8344 266.2796 15.08832123 68500,6917.904,95.438,540.665,538.874,0.0
50832.0,STARLINK-3328,PAYLOAD,2023-03-25 22:24:08,15.08827612,0.000105,53.2156,346.3323,108.0699,252.0407,-0.00026435,-4.491e-05,0.0,0 STARLINK-3328,1 50832U 22001AF  23084.93343224 -.00004491  00000-0 -26435-3 0  9993,2 50832  53.2156 346.3323 0001050 108.0699 252.0407 15.08827612 67266,6917.918,95.438,540.51,539.057,0.0
50832.0,STARLINK-3328,PAYLOAD,2023-03-26 03:10:18,15.08816221,0.0001125,53.2161,345.4408,65.6876,294.4234,-0.00025915,-4.407e-05,0.0,0 STARLINK-3328,1 50832U 22001AF  23085.13215904 -.00004407  00000-0 -25915-3 0  9998,2 50832  53.2161 345.4408 0001125  65.6876 294.4234 15.08816221 68548,6917.953,95.439,540.596,539.04,0.0
50832.0,STARLINK-3328,PAYLOAD,2023-03-26 22:14:57,15.08827349,0.0001202,53.2172,341.8736,67.0164,293.0955,0.00064921,0.00010056,0.0,0 STARLINK-3328,1 50832U 22001AF  23085.92705064  .00010056  00000-0  64921-3 0  9991,2 50832  53.2172 341.8736 0001202  67.0164 293.0955 15.08827349 67419,6917.919,95.438,540.616,538.953,0.0
50832.0,STARLINK-3328,PAYLOAD,2023-03-27 22:05:43,15.08863241,0.0001217,53.2168,337.4124,69.5902,290.5221,0.00093409,0.00014619,0.0,0 STARLINK-3328,1 50832U 22001AF  23086.92064427  .00014619  00000-0  93409-3 0  9995,2 50832  53.2168 337.4124 0001217  69.5902 290.5221 15.08863241 68813,6917.809,95.436,540.516,538.832,0.0
50832.0,STARLINK-3328,PAYLOAD,2023-03-27 23:41:06,15.08869393,0.0001172,53.2168,337.115,69.1705,290.9412,0.0011087,0.00017415,0.0,0 STARLINK-3328,1 50832U 22001AF  23086.98688239  .00017415  00000-0  11087-2 0  9992,2 50832  53.2168 337.1150 0001172  69.1705 290.9412 15.08869393 67578,6917.791,95.436,540.466,538.845,0.0
50832.0,STARLINK-3328,PAYLOAD,2023-03-28 15:34:57,15.08860676,0.0001184,53.2172,334.1436,80.0412,280.0714,0.00058205,8.993e-05,0.0,0 STARLINK-3328,1 50832U 22001AF  23087.64927949  .00008993  00000-0  58205-3 0  9995,2 50832  53.2172 334.1436 0001184  80.0412 280.0714 15.08860676 68927,6917.817,95.436,540.501,538.863,0.0
50832.0,STARLINK-3328,PAYLOAD,2023-03-28 20:21:07,15.08859239,0.0001039,53.2166,333.2486,67.6586,292.4516,0.00061176,9.467e-05,0.0,0 STARLINK-3328,1 50832U 22001AF  23087.84799889  .00009467  00000-0  61176-3 0  9995,2 50832  53.2166 333.2486 0001039  67.6586 292.4516 15.08859239 67702,6917.822,95.436,540.405,538.968,0.0
50832.0,STARLINK-3328,PAYLOAD,2023-03-29 02:42:39,15.08870906,0.0001075,53.2168,332.0583,93.2751,266.8364,0.00094463,0.0001479,0.0,0 STARLINK-3328,1 50832U 22001AF  23088.11295314  .00014790  00000-0  94463-3 0  9990,2 50832  53.2168 332.0583 0001075  93.2751 266.8364 15.08870906 67742,6917.786,95.436,540.395,538.907,0.0
50832.0,STARLINK-3328,PAYLOAD,2023-03-29 20:11:54,15.08840058,0.0001322,53.2158,328.789,111.4235,248.6898,0.00063787,9.878e-05,0.0,0 STARLINK-3328,1 50832U 22001AF  23088.84160050  .00009878  00000-0  63787-3 0  9994,2 50832  53.2158 328.7890 0001322 111.4235 248.6898 15.08840058 69106,6917.88,95.438,540.66,538.831,0.0
50832.0,STARLINK-3328,PAYLOAD,2023-03-30 00:58:03,15.08848093,0.0001072,53.2159,327.8965,120.896,239.2138,0.00079666,0.00012416,0.0,0 STARLINK-3328,1 50832U 22001AF  23089.04031915  .00012416  00000-0  79666-3 0  9999,2 50832  53.2159 327.8965 0001072 120.8960 239.2138 15.08848093 67884,6917.856,95.437,540.462,538.979,0.0
50832.0,STARLINK-3328,PAYLOAD,2023-03-31 00:48:51,15.08851761,0.0001326,53.2163,323.4351,107.8468,252.2668,0.0017859,0.00028258,0.0,0 STARLINK-3328,1 50832U 22001AF  23090.03392621  .00028258  00000-0  17859-2 0  9990,2 50832  53.2163 323.4351 0001326 107.8468 252.2668 15.08851761 69285,6917.844,95.437,540.627,538.792,0.0
50832.0,STARLINK-3328,PAYLOAD,2023-03-31 21:28:51,15.08850402,0.0001506,53.2161,319.565,121.7349,238.379,0.00078327,0.00012203,0.0,0 STARLINK-3328,1 50832U 22001AF  23090.89504401  .00012203  00000-0  78327-3 0  9996,2 50832  53.2161 319.5650 0001506 121.7349 238.3790 15.08850402 69411,6917.849,95.437,540.755,538.672,0.0
50832.0,STARLINK-3328,PAYLOAD,2023-04-01 00:39:38,15.08856851,0.0001198,53.2158,318.9733,103.9949,256.1177,0.0012703,0.00019996,0.0,0 STARLINK-3328,1 50832U 22001AF  23091.02752376  .00019996  00000-0  12703-2 0  9999,2 50832  53.2158 318.9733 0001198 103.9949 256.1177 15.08856851 68181,6917.829,95.436,540.523,538.865,0.0
50832.0,STARLINK-3328,PAYLOAD,2023-04-01 21:19:39,15.08834946,0.0001761,53.216,315.1097,83.5173,276.6019,0.00092404,0.00014447,0.0,0 STARLINK-3328,1 50832U 22001AF  23091.88865544  .00014447  00000-0  92404-3 0  9998,2 50832  53.2160 315.1097 0001761  83.5173 276.6019 15.08834946 69560,6917.896,95.438,540.979,538.543,0.0
